[{"OBJECT_NAME":"STARLINK-32537","OBJECT_ID":"2024-207M","EPOCH":"2026-03-09T01:55:55.651872","MEAN_MOTION":15.27569636,"ECCENTRICITY":0.00015585,"INCLINATION":42.9996,"RA_OF_ASC_NODE":289.0978,"ARG_OF_PERICENTER":273.0497,"MEAN_ANOMALY":87.0176,"EPHEMERIS_TYPE":0,"CLASSIFICATION_TYPE":"U","NORAD_CAT_ID":61923,"ELEMENT_SET_NO":999,"REV_AT_EPOCH":7458,"BSTAR":0.0010489138,"MEAN_MOTION_DOT":0.00028705,"MEAN_MOTION_DDOT":0},{"OBJECT_NAME":"FLOCK 4G-21","OBJECT_ID":"2025-009AU","EPOCH":"2026-03-09T04:40:37.351200","MEAN_MOTION":15.28381075,"ECCENTRICITY":4.655e-5,"INCLINATION":97.4032,"RA_OF_ASC_NODE":151.1274,"ARG_OF_PERICENTER":329.5782,"MEAN_ANOMALY":30.5431,"EPHEMERIS_TYPE":0,"CLASSIFICATION_TYPE":"U","NORAD_CAT_ID":62651,"ELEMENT_SET_NO":999,"REV_AT_EPOCH":6367,"BSTAR":0.00049618643,"MEAN_MOTION_DOT":0.00013648,"MEAN_MOTION_DDOT":0}]
